STARLINK-37017          
1 68108U 26044H   26087.82987994  .00182696  00000+0  11972-2 0  9991
2 68108  97.2841  48.9218 0001472 108.6323 251.5102 15.75238549  4497
STARLINK-36833          
1 68109U 26044J   26087.89199801  .00078583  00000+0  52276-3 0  9993
2 68109  97.2847  48.9893 0001150  89.5657 270.5740 15.75195680  4502
STARLINK-36830          
1 68110U 26044K   26087.82917053  .00200608  00000+0  13102-2 0  9994
2 68110  97.2846  48.9220 0001673 119.5751 240.5682 15.75265076  4493
STARLINK-36791          
1 68111U 26044L   26087.89058639  .00072674  00000+0  48393-3 0  9999
2 68111  97.2846  48.9920 0001387  97.2515 262.8908 15.75191897  4502
STARLINK-36893          
1 68112U 26044M   26087.82599407  .00106024  00000+0  70153-3 0  9992
2 68112  97.2848  48.9256 0001543 105.1586 254.9850 15.75235164  4490
STARLINK-36937          
1 68113U 26044N   26087.82493973  .00302150  00000+0  19490-2 0  9998
2 68113  97.2846  48.9274 0000993 100.9212 259.2165 15.75270235  4491
STARLINK-36229          
1 68114U 26044P   26087.88882422  .00132971  00000+0  87837-3 0  9999
2 68114  97.2848  48.9923 0001120  83.3911 276.7481 15.75194798  4504
STARLINK-36392          
1 68115U 26044Q   26087.88746754 -.00485250  00000+0 -35145-2 0  9994
2 68115  97.2849  48.9952 0001201  44.9797 315.1565 15.74701445  4506
STARLINK-36805          
1 68116U 26044R   26087.88705778  .00092611  00000+0  61479-3 0  9999
2 68116  97.2850  48.9954 0001209  87.6959 272.4445 15.75200355  4500
STARLINK-36844          
1 68117U 26044S   26087.82211540  .00158098  00000+0  10392-2 0  9992
2 68117  97.2847  48.9310 0001404  90.5726 269.5700 15.75236742  4493
STARLINK-36789          
1 68118U 26044T   26087.91668981 -.00007554  00000+0 -49821-4 0  9991
2 68118  97.2849  49.0312 0001371  73.3065 104.7401 15.75188130  4448
STARLINK-36850          
1 68119U 26044U   26087.88494266  .00150910  00000+0  99450-3 0  9996
2 68119  97.2849  48.9978 0001154  87.6123 272.5274 15.75198550  4503
